[Satellite]
VERSION=1.1
NAME=IRIDIUM 54 [+]
NICKNAME=IRIDIUM 54 [+]
TLE1=1 25171U 98010C   15055.51671085  .00000437  00000-0  14889-3 0  9990
TLE2=2 25171  86.4009 343.0273 0002185  97.4321 262.7123 14.34217449891009
